GLOBALSTAR M045         
1 25676U 99019A   24354.67077399 -.00000043  00000+0  44543-3 0  9990
2 25676  51.9969  96.9252 0000931 146.5942   1.1348 12.27053648171356
GLOBALSTAR M019         
1 25677U 99019B   24354.85170615  .00000051  00000+0  14718-2 0  9994
2 25677  51.9858 214.1581 0001286  24.1868  84.7814 12.13870267163361
GLOBALSTAR M042         
1 25679U 99019D   24354.87763762 -.00000082  00000+0  98065-4 0  9993
2 25679  51.9985 197.1474 0001832 304.3271 185.1162 12.22075199163333
GLOBALSTAR M025         
1 25770U 99031A   24354.89383059 -.00000065  00000+0  64483-4 0  9996
2 25770  51.9787 214.6184 0001180 148.9148 330.0311 11.22558053461577
GLOBALSTAR M049         
1 25771U 99031B   24354.85482406 -.00000032  00000+0  11618-2 0  9993
2 25771  51.9859 240.4596 0004511  71.5807 288.5479 11.12111484 97474
GLOBALSTAR M047         
1 25772U 99031C   24354.88463858 -.00000047  00000+0  63398-3 0  9996
2 25772  51.9830 254.4929 0016136 318.7703  41.1883 11.31925904450809
GLOBALSTAR M052         
1 25773U 99031D   24354.78709003 -.00000087  00000+0 -70864-3 0  9992
2 25773  51.9898 351.8108 0002400 235.3560 295.7857 11.15055818458490
